ARIRANG-3 (KOMPSAT-3)   
1 38338U 12025B   20118.15391537  .00000036  00000-0  16652-4 0  9994
2 38338  98.1474  57.1763 0008814 308.6204  51.4211 14.61854916423832
KANOPUS-V 1             
1 38707U 12039A   20118.52989616  .00000203  00000-0  12889-4 0  9995
2 38707  97.4606  38.0709 0001654  78.5473  94.2599 15.19153763430776
EXACTVIEW-1 (ADS-1B)    
1 38709U 12039C   20118.03763018  .00000010  00000-0  25074-4 0  9995
2 38709  99.1134 149.3871 0011378 136.2397 223.9689 14.24016464403536
SPOT 6                  
1 38755U 12047A   20118.43592154 -.00000011  00000-0  73999-5 0  9992
2 38755  98.1691 186.1042 0001184  93.3541 266.7799 14.58571801406304
PLEIADES 1B             
1 39019U 12068A   20118.11098362 -.00000020  00000-0  55272-5 0  9990
2 39019  98.1999 193.3126 0001281  82.2134 277.9219 14.58555196394031
GOKTURK 2               
1 39030U 12073A   20118.42194711  .00000039  00000-0  13715-4 0  9992
2 39030  97.9571   7.1859 0001332  16.7192 343.4055 14.72747041394399
LANDSAT 8               
1 39084U 13008A   20118.44554654  .00000045  00000-0  20021-4 0  9993
2 39084  98.1847 188.8260 0001455  76.6858 283.4511 14.57121602383277
SARAL                   
1 39086U 13009A   20117.89188946 -.00000024  00000-0  73372-5 0  9997
2 39086  98.5438 304.2481 0001973  71.9619 288.1779 14.32024622374620
GAOFEN 1                
1 39150U 13018A   20118.49767362  .00000036  00000-0  12385-4 0  9999
2 39150  97.8695 196.6028 0017712 284.7987  75.1260 14.76550548377495
VNREDSAT 1              
1 39160U 13021B   20118.42695139  .00000051  00000-0  19116-4 0  9995
2 39160  98.1492 195.6122 0001630  83.7400 276.3984 14.62925901372428
ARIRANG-5 (KOMPSAT-5)   
1 39227U 13042A   20118.50224881 -.00000232  00000-0 -12287-4 0  9998
2 39227  97.6240 303.3371 0002045  89.1572 295.5719 15.04510838366868
YAOGAN 18               
1 39363U 13059A   20118.50298113  .00001029  00000-0  37324-4 0  9998
2 39363  97.2536 169.1398 0005338 237.9366 240.3008 15.30540560359924
SKYSAT-1                
1 39418U 13066C   20117.67623140 -.00000105  00000-0 -37451-5 0  9994
2 39418  97.6233 198.3169 0021675  15.4015 344.7862 14.98943076351522
DUBAISAT-2              
1 39419U 13066D   20118.15369948 -.00000331  00000-0 -25811-4 0  9999
2 39419  97.5470 174.2367 0014506  24.1473 336.0440 14.94104307350514
GPM-CORE                
1 39574U 14009C   20117.84852678  .00002319  00000-0  37889-4 0  9995
2 39574  65.0063 327.1433 0011767 288.8206  71.1663 15.55607475350017
SENTINEL-1A             
1 39634U 14016A   20118.42462607 -.00000110  00000-0 -13582-4 0  9997
2 39634  98.1821 126.1252 0001322  80.5974 279.5379 14.59197207323124
KAZEOSAT 1              
1 39731U 14024A   20118.45531431  .00000000  00000-0  13001-4 0  9991
2 39731  98.3193 192.7936 0001386  88.3951 271.7402 14.42057746315537
ALOS-2                  
1 39766U 14029A   20118.11017224 -.00000350  00000-0 -39950-4 0  9997
2 39766  97.9196 215.4424 0001566  85.8795 274.2641 14.79467910320106
KAZEOSAT 2              
1 40010U 14033A   20118.44328118  .00000032  00000-0  10577-4 0  9998
2 40010  97.8114  15.5807 0017525 108.0294 252.2816 14.82107793316768
HODOYOSHI-4             
1 40011U 14033B   20118.46125416  .00000107  00000-0  20309-4 0  9994
2 40011  97.7822   8.1391 0028125 107.0115 253.4187 14.81184307316476
DEIMOS-2                
1 40013U 14033D   20118.14160292  .00000201  00000-0  30007-4 0  9993
2 40013  97.8215  21.6384 0001951 109.6158 250.5274 14.84646658317257
HODOYOSHI-3             
1 40015U 14033F   20117.69049275  .00000053  00000-0  13995-4 0  9993
2 40015  97.7450 355.1053 0038157 126.5979 233.8752 14.78588320315789
SPOT 7                  
1 40053U 14034A   20118.12756836 -.00000029  00000-0  35184-5 0  9992
2 40053  98.1854 185.9543 0001212  96.2841 263.8503 14.58563075310195
SKYSAT-2                
1 40072U 14037D   20118.43443920  .00000092  00000-0  19359-4 0  9991
2 40072  98.4584 293.9041 0005315 305.3407  54.7306 14.81273554313694
WORLDVIEW-3 (WV-3)      
1 40115U 14048A   20118.49030502  .00000083  00000-0  15814-4 0  9997
2 40115  97.7797 195.5785 0002186 101.0141 259.1316 14.85113936309239
GAOFEN 2                
1 40118U 14049A   20118.16453010  .00000052  00000-0  13504-4 0  9998
2 40118  97.8407 196.5864 0007388 348.4443  11.6606 14.80659639307489
YAOGAN 21               
1 40143U 14053A   20117.84845690  .00000829  00000-0  37531-4 0  9992
2 40143  97.4431 185.0066 0017990  90.8992  20.5844 15.23559227313541
YAOGAN 22               
1 40275U 14063A   20118.46382859 -.00000045  00000-0  00000+0 0  9998
2 40275 100.4892 232.7597 0006040 212.2495 147.8248 13.15421178265060
ASNARO                  
1 40298U 14070A   20118.06159931  .00000861  00000-0  43578-4 0  9997
2 40298  97.4181 201.1007 0002091  96.0376  26.0831 15.19623888303534
HODOYOSHI-1             
1 40299U 14070B   20118.43553561  .00000549  00000-0  25511-4 0  9996
2 40299  97.3238 196.3529 0013596  22.9500  33.5026 15.24020280304049
QSAT-EOS                
1 40301U 14070D   20118.08089477  .00001625  00000-0  63865-4 0  9991
2 40301  97.2950 193.6938 0025530  14.4099 102.7150 15.26817885304096
YAOGAN 23               
1 40305U 14071A   20118.52258919  .00000440  00000-0  24912-4 0  9998
2 40305  97.5223  58.3409 0001235  40.5661  79.4728 15.18109507302003
YAOGAN 24               
1 40310U 14072A   20118.42409275  .00000033  00000-0  12099-4 0  9998
2 40310  97.8901 241.6249 0016087 293.7686  66.1833 14.76287273293003
CBERS 4                 
1 40336U 14079A   20118.15401578 -.00000014  00000-0  10518-4 0  9995
2 40336  98.5642 190.1938 0000623 103.4766 256.6498 14.35410791282323
RESURS P2               
1 40360U 14087A   20118.49102911  .00000597  00000-0  20776-4 0  9999
2 40360  97.2438 208.2846 0009834  18.6165 104.7716 15.33496227298501
YAOGAN 26               
1 40362U 14088A   20118.46340584  .00000737  00000-0  33623-4 0  9990
2 40362  97.2503 188.1385 0008421 328.1509 146.2173 15.23616612297106
SMAP                    
1 40376U 15003A   20118.10572341  .00000024  00000-0  13723-4 0  9990
2 40376  98.1240 125.3933 0001838 101.6894 258.4511 14.63381294279714
KOMPSAT-3A              
1 40536U 15014A   20118.14099328  .00000081  00000-0  83642-5 0  9994
2 40536  97.5393  58.2734 0000944  59.6515  56.4137 15.12251270280960
SENTINEL-2A             
1 40697U 15028A   20118.14460366  .00000006  00000-0  19055-4 0  9994
2 40697  98.5710 193.1053 0001230  87.5419 272.5911 14.30814192253123
GAOFEN 8                
1 40701U 15030A   20118.50644956  .00000900  00000-0  40645-4 0  9994
2 40701  97.4645 241.2396 0009789 335.2416 151.2968 15.23555172269480
CARBONITE 1 (CBNT-1)    
1 40718U 15032D   20118.09987087  .00000135  00000-0  27441-4 0  9992
2 40718  97.8459   0.6509 0017457  21.6745 338.5204 14.74798463258242
YAOGAN 27               
1 40878U 15040A   20118.44299259 -.00000043  00000-0  11993-5 0  9999
2 40878 100.2380 168.4130 0007993 345.3382  14.7498 13.15964679224307
GAOFEN 9                
1 40894U 15047A   20118.46325439  .00000052  00000-0  14859-4 0  9998
2 40894  97.8891 198.9217 0032505 211.0113 148.9182 14.76297195248952
LAPAN-A2                
1 40931U 15052B   20117.54440644  .00000733  00000-0  12968-4 0  9995
2 40931   5.9970 345.5960 0013178 264.9292  94.9375 14.76633850247570
YAOGAN 28               
1 41026U 15064A   20118.18648241  .00000683  00000-0  31553-4 0  9993
2 41026  97.4460 250.3235 0000459 265.4324 213.8496 15.23512221249281
YAOGAN 29               
1 41038U 15069A   20118.40966910  .00000017  00000-0  92010-5 0  9999
2 41038  98.0081 106.4742 0002213  71.4677 288.6783 14.80444488238727
KENT RIDGE 1            
1 41167U 15077B   20118.24681453  .00000929  00000-0  16560-4 0  9996
2 41167  14.9785 136.9256 0011782  20.3302  74.5065 15.09142733241038
TELEOS 1                
1 41169U 15077D   20118.40325231  .00001174  00000-0  29963-4 0  9999
2 41169  14.9803 121.1812 0010680  48.0350 184.1826 15.10516229241187
GAOFEN 4                
1 41194U 15083A   20117.94466434 -.00000330  00000-0  00000-0 0  9994
2 41194   0.0700  83.7413 0005375  78.7496 138.7161  1.00273300 16005
JASON-3                 
1 41240U 16002A   20118.44709202 -.00000077  00000-0 -67464-4 0  9997
2 41240  66.0385 111.0885 0008464 271.7826  88.2219 12.80929653200029
SENTINEL-3A             
1 41335U 16011A   20118.09430804 -.00000001  00000-0  17531-4 0  9998
2 41335  98.6276 185.5882 0001069  87.6503 272.4800 14.26735493218354
SENTINEL-1B             
1 41456U 16025A   20118.38985659 -.00000103  00000-0 -12217-4 0  9992
2 41456  98.1823 125.9170 0001366  80.0225 280.1130 14.59197256213281
ZIYUAN 3-2 (ZY 3-2)     
1 41556U 16033A   20118.47717244  .00000635  00000-0  31359-4 0  9991
2 41556  97.3649 194.6795 0003312 163.8216 312.7997 15.21367988217163
NUSAT-1 (FRESCO)        
1 41557U 16033B   20118.10166780  .00001174  00000-0  45773-4 0  9999
2 41557  97.4020 208.6670 0011871 269.4704  90.5175 15.27912403217938
NUSAT-2 (BATATA)        
1 41558U 16033C   20118.39509488  .00001444  00000-0  52486-4 0  9996
2 41558  97.4070 211.0721 0010914 265.6291  94.3702 15.29886036218084
CARTOSAT-2C             
1 41599U 16040A   20118.46637038  .00000398  00000-0  22099-4 0  9994
2 41599  97.4536 178.6354 0014619  33.6135  81.3953 15.19243886213350
SKYSAT-C1               
1 41601U 16040C   20118.19074068  .00003189  00000-0  88290-4 0  9992
2 41601  97.2238 196.7641 0005366 358.2574   1.8410 15.37700905213831
LAPAN-A3                
1 41603U 16040E   20118.51580193  .00000092  00000-0  73970-5 0  9991
2 41603  97.3136 173.6394 0014268  26.9987  80.2393 15.19824086213409
BIROS                   
1 41604U 16040F   20117.77399657  .00000448  00000-0  22597-4 0  9995
2 41604  97.3194 176.6411 0012607  14.7520 345.4082 15.21989231213510
